STARLINK-11498 [DTC]    
1 62276U 24237K   26007.84692450  .00215739  00000+0  16386-2 0  9996
2 62276  43.0005  63.3166 0000823   4.7787 355.3088 15.70882429 63487
STARLINK-11484 [DTC]    
1 62277U 24237L   26007.53962770  .00265684  00000+0  20040-2 0  9994
2 62277  42.9999  65.3175 0001719 289.6794  70.3888 15.70894337 63435
STARLINK-11487 [DTC]    
1 62278U 24237M   26007.62974949  .00112774  00000+0  86948-3 0  9997
2 62278  42.9999  65.1474 0001252 288.1378  71.9353 15.70867897 63446
STARLINK-11499 [DTC]    
1 62279U 24237N   26007.51411449  .00313156  00000+0  23454-2 0  9996
2 62279  42.9997  66.0070 0001414 277.5276  82.5431 15.70918718 63350
STARLINK-33548          
1 62280U 24237P   26007.79003632  .00020214  00000+0  74230-3 0  9998
2 62280  42.9981 189.4270 0001665 269.5189  90.5471 15.27569495 62009
STARLINK-33544          
1 62281U 24237Q   26007.58229910  .00018145  00000+0  66723-3 0  9993
2 62281  43.0026 201.6973 0001831 264.9853  95.0789 15.27582495 61849
STARLINK-33560          
1 62282U 24237R   26007.82585807  .00013885  00000+0  51326-3 0  9990
2 62282  42.9999 200.0783 0001835 277.2407  82.8236 15.27571857 61790
STARLINK-33547          
1 62283U 24237S   26007.52463816  .00017934  00000+0  65943-3 0  9992
2 62283  42.9987 190.8762 0001002 281.6443  78.4296 15.27590982 61962
STARLINK-33563          
1 62284U 24237T   26007.83226906  .00020779  00000+0  76188-3 0  9998
2 62284  42.9930 200.1235 0001389 266.2663  93.8030 15.27605362 61889
STARLINK-33550          
1 62285U 24237U   26007.82199524  .00020131  00000+0  73929-3 0  9995
2 62285  42.9993 200.0507 0001710 271.7822  88.2834 15.27570099 61884
STARLINK-33564          
1 62286U 24237V   26007.83613254  .00018619  00000+0  68443-3 0  9991
2 62286  42.9960 200.1582 0000835 245.6023 114.4742 15.27579601 61881
STARLINK-33546          
1 62287U 24237W   26007.82842331  .00019622  00000+0  72044-3 0  9998
2 62287  42.9972 200.0957 0001386 279.6209  80.4486 15.27590178 61794
STARLINK-33565          
1 62288U 24237X   26007.56047458  .00018419  00000+0  67698-3 0  9999
2 62288  42.9998 190.2858 0001270 264.2574  95.8133 15.27590311 61978
STARLINK-33549          
1 62289U 24237Y   26007.57844455  .00016955  00000+0  62408-3 0  9990
2 62289  42.9980 201.6630 0000806 220.3924 139.6868 15.27588057 61843
STARLINK-32648          
1 62301U 24239A   26007.57072541  .00034936  00000+0  11867-2 0  9997
2 62301  53.1586 105.2233 0000864  84.1449 275.9650 15.30183651 60201
STARLINK-32594          
1 62302U 24239B   26007.55911847  .00021038  00000+0  72031-3 0  9997
2 62302  53.1606 115.6509 0000997  87.4702 272.6413 15.30205598 60050
