[{"OBJECT_NAME":"STARLINK-11498 [DTC]","OBJECT_ID":"2024-237K","EPOCH":"2026-01-07T20:19:34.276800","MEAN_MOTION":15.70882429,"ECCENTRICITY":8.23e-5,"INCLINATION":43.0005,"RA_OF_ASC_NODE":63.3166,"ARG_OF_PERICENTER":4.7787,"MEAN_ANOMALY":355.3088,"EPHEMERIS_TYPE":0,"CLASSIFICATION_TYPE":"U","NORAD_CAT_ID":62276,"ELEMENT_SET_NO":999,"REV_AT_EPOCH":6348,"BSTAR":0.0016386,"MEAN_MOTION_DOT":0.00215739,"MEAN_MOTION_DDOT":0},{"OBJECT_NAME":"STARLINK-11484 [DTC]","OBJECT_ID":"2024-237L","EPOCH":"2026-01-07T12:57:03.833280","MEAN_MOTION":15.70894337,"ECCENTRICITY":0.0001719,"INCLINATION":42.9999,"RA_OF_ASC_NODE":65.3175,"ARG_OF_PERICENTER":289.6794,"MEAN_ANOMALY":70.3888,"EPHEMERIS_TYPE":0,"CLASSIFICATION_TYPE":"U","NORAD_CAT_ID":62277,"ELEMENT_SET_NO":999,"REV_AT_EPOCH":6343,"BSTAR":0.002004,"MEAN_MOTION_DOT":0.00265684,"MEAN_MOTION_DDOT":0},{"OBJECT_NAME":"STARLINK-11487 [DTC]","OBJECT_ID":"2024-237M","EPOCH":"2026-01-07T15:06:50.355936","MEAN_MOTION":15.70867897,"ECCENTRICITY":0.0001252,"INCLINATION":42.9999,"RA_OF_ASC_NODE":65.1474,"ARG_OF_PERICENTER":288.1378,"MEAN_ANOMALY":71.9353,"EPHEMERIS_TYPE":0,"CLASSIFICATION_TYPE":"U","NORAD_CAT_ID":62278,"ELEMENT_SET_NO":999,"REV_AT_EPOCH":6344,"BSTAR":0.00086948,"MEAN_MOTION_DOT":0.00112774,"MEAN_MOTION_DDOT":0},{"OBJECT_NAME":"STARLINK-11499 [DTC]","OBJECT_ID":"2024-237N","EPOCH":"2026-01-07T12:20:19.491936","MEAN_MOTION":15.70918718,"ECCENTRICITY":0.0001414,"INCLINATION":42.9997,"RA_OF_ASC_NODE":66.007,"ARG_OF_PERICENTER":277.5276,"MEAN_ANOMALY":82.5431,"EPHEMERIS_TYPE":0,"CLASSIFICATION_TYPE":"U","NORAD_CAT_ID":62279,"ELEMENT_SET_NO":999,"REV_AT_EPOCH":6335,"BSTAR":0.0023454,"MEAN_MOTION_DOT":0.00313156,"MEAN_MOTION_DDOT":0},{"OBJECT_NAME":"STARLINK-33548","OBJECT_ID":"2024-237P","EPOCH":"2026-01-07T18:57:39.138048","MEAN_MOTION":15.27569495,"ECCENTRICITY":0.0001665,"INCLINATION":42.9981,"RA_OF_ASC_NODE":189.427,"ARG_OF_PERICENTER":269.5189,"MEAN_ANOMALY":90.5471,"EPHEMERIS_TYPE":0,"CLASSIFICATION_TYPE":"U","NORAD_CAT_ID":62280,"ELEMENT_SET_NO":999,"REV_AT_EPOCH":6200,"BSTAR":0.0007423,"MEAN_MOTION_DOT":0.00020214,"MEAN_MOTION_DDOT":0},{"OBJECT_NAME":"STARLINK-33544","OBJECT_ID":"2024-237Q","EPOCH":"2026-01-07T13:58:30.642240","MEAN_MOTION":15.27582495,"ECCENTRICITY":0.0001831,"INCLINATION":43.0026,"RA_OF_ASC_NODE":201.6973,"ARG_OF_PERICENTER":264.9853,"MEAN_ANOMALY":95.0789,"EPHEMERIS_TYPE":0,"CLASSIFICATION_TYPE":"U","NORAD_CAT_ID":62281,"ELEMENT_SET_NO":999,"REV_AT_EPOCH":6184,"BSTAR":0.00066723,"MEAN_MOTION_DOT":0.00018145,"MEAN_MOTION_DDOT":0},{"OBJECT_NAME":"STARLINK-33560","OBJECT_ID":"2024-237R","EPOCH":"2026-01-07T19:49:14.137248","MEAN_MOTION":15.27571857,"ECCENTRICITY":0.0001835,"INCLINATION":42.9999,"RA_OF_ASC_NODE":200.0783,"ARG_OF_PERICENTER":277.2407,"MEAN_ANOMALY":82.8236,"EPHEMERIS_TYPE":0,"CLASSIFICATION_TYPE":"U","NORAD_CAT_ID":62282,"ELEMENT_SET_NO":999,"REV_AT_EPOCH":6179,"BSTAR":0.00051326,"MEAN_MOTION_DOT":0.00013885,"MEAN_MOTION_DDOT":0},{"OBJECT_NAME":"STARLINK-33547","OBJECT_ID":"2024-237S","EPOCH":"2026-01-07T12:35:28.737024","MEAN_MOTION":15.27590982,"ECCENTRICITY":0.0001002,"INCLINATION":42.9987,"RA_OF_ASC_NODE":190.8762,"ARG_OF_PERICENTER":281.6443,"MEAN_ANOMALY":78.4296,"EPHEMERIS_TYPE":0,"CLASSIFICATION_TYPE":"U","NORAD_CAT_ID":62283,"ELEMENT_SET_NO":999,"REV_AT_EPOCH":6196,"BSTAR":0.00065943,"MEAN_MOTION_DOT":0.00017934,"MEAN_MOTION_DDOT":0},{"OBJECT_NAME":"STARLINK-33563","OBJECT_ID":"2024-237T","EPOCH":"2026-01-07T19:58:28.046784","MEAN_MOTION":15.27605362,"ECCENTRICITY":0.0001389,"INCLINATION":42.993,"RA_OF_ASC_NODE":200.1235,"ARG_OF_PERICENTER":266.2663,"MEAN_ANOMALY":93.803,"EPHEMERIS_TYPE":0,"CLASSIFICATION_TYPE":"U","NORAD_CAT_ID":62284,"ELEMENT_SET_NO":999,"REV_AT_EPOCH":6188,"BSTAR":0.00076188,"MEAN_MOTION_DOT":0.00020779,"MEAN_MOTION_DDOT":0},{"OBJECT_NAME":"STARLINK-33550","OBJECT_ID":"2024-237U","EPOCH":"2026-01-07T19:43:40.388736","MEAN_MOTION":15.27570099,"ECCENTRICITY":0.000171,"INCLINATION":42.9993,"RA_OF_ASC_NODE":200.0507,"ARG_OF_PERICENTER":271.7822,"MEAN_ANOMALY":88.2834,"EPHEMERIS_TYPE":0,"CLASSIFICATION_TYPE":"U","NORAD_CAT_ID":62285,"ELEMENT_SET_NO":999,"REV_AT_EPOCH":6188,"BSTAR":0.00073929,"MEAN_MOTION_DOT":0.00020131,"MEAN_MOTION_DDOT":0},{"OBJECT_NAME":"STARLINK-33564","OBJECT_ID":"2024-237V","EPOCH":"2026-01-07T20:04:01.851456","MEAN_MOTION":15.27579601,"ECCENTRICITY":8.35e-5,"INCLINATION":42.996,"RA_OF_ASC_NODE":200.1582,"ARG_OF_PERICENTER":245.6023,"MEAN_ANOMALY":114.4742,"EPHEMERIS_TYPE":0,"CLASSIFICATION_TYPE":"U","NORAD_CAT_ID":62286,"ELEMENT_SET_NO":999,"REV_AT_EPOCH":6188,"BSTAR":0.00068443,"MEAN_MOTION_DOT":0.00018619,"MEAN_MOTION_DDOT":0},{"OBJECT_NAME":"STARLINK-33546","OBJECT_ID":"2024-237W","EPOCH":"2026-01-07T19:52:55.773984","MEAN_MOTION":15.27590178,"ECCENTRICITY":0.0001386,"INCLINATION":42.9972,"RA_OF_ASC_NODE":200.0957,"ARG_OF_PERICENTER":279.6209,"MEAN_ANOMALY":80.4486,"EPHEMERIS_TYPE":0,"CLASSIFICATION_TYPE":"U","NORAD_CAT_ID":62287,"ELEMENT_SET_NO":999,"REV_AT_EPOCH":6179,"BSTAR":0.00072044,"MEAN_MOTION_DOT":0.00019622,"MEAN_MOTION_DDOT":0},{"OBJECT_NAME":"STARLINK-33565","OBJECT_ID":"2024-237X","EPOCH":"2026-01-07T13:27:05.003712","MEAN_MOTION":15.27590311,"ECCENTRICITY":0.000127,"INCLINATION":42.9998,"RA_OF_ASC_NODE":190.2858,"ARG_OF_PERICENTER":264.2574,"MEAN_ANOMALY":95.8133,"EPHEMERIS_TYPE":0,"CLASSIFICATION_TYPE":"U","NORAD_CAT_ID":62288,"ELEMENT_SET_NO":999,"REV_AT_EPOCH":6197,"BSTAR":0.00067698,"MEAN_MOTION_DOT":0.00018419,"MEAN_MOTION_DDOT":0},{"OBJECT_NAME":"STARLINK-33549","OBJECT_ID":"2024-237Y","EPOCH":"2026-01-07T13:52:57.609120","MEAN_MOTION":15.27588057,"ECCENTRICITY":8.06e-5,"INCLINATION":42.998,"RA_OF_ASC_NODE":201.663,"ARG_OF_PERICENTER":220.3924,"MEAN_ANOMALY":139.6868,"EPHEMERIS_TYPE":0,"CLASSIFICATION_TYPE":"U","NORAD_CAT_ID":62289,"ELEMENT_SET_NO":999,"REV_AT_EPOCH":6184,"BSTAR":0.00062408,"MEAN_MOTION_DOT":0.00016955,"MEAN_MOTION_DDOT":0},{"OBJECT_NAME":"STARLINK-32648","OBJECT_ID":"2024-239A","EPOCH":"2026-01-07T13:41:50.675424","MEAN_MOTION":15.30183651,"ECCENTRICITY":8.64e-5,"INCLINATION":53.1586,"RA_OF_ASC_NODE":105.2233,"ARG_OF_PERICENTER":84.1449,"MEAN_ANOMALY":275.965,"EPHEMERIS_TYPE":0,"CLASSIFICATION_TYPE":"U","NORAD_CAT_ID":62301,"ELEMENT_SET_NO":999,"REV_AT_EPOCH":6020,"BSTAR":0.0011867,"MEAN_MOTION_DOT":0.00034936,"MEAN_MOTION_DDOT":0},{"OBJECT_NAME":"STARLINK-32594","OBJECT_ID":"2024-239B","EPOCH":"2026-01-07T13:25:07.835808","MEAN_MOTION":15.30205598,"ECCENTRICITY":9.97e-5,"INCLINATION":53.1606,"RA_OF_ASC_NODE":115.6509,"ARG_OF_PERICENTER":87.4702,"MEAN_ANOMALY":272.6413,"EPHEMERIS_TYPE":0,"CLASSIFICATION_TYPE":"U","NORAD_CAT_ID":62302,"ELEMENT_SET_NO":999,"REV_AT_EPOCH":6005,"BSTAR":0.00072031,"MEAN_MOTION_DOT":0.00021038,"MEAN_MOTION_DDOT":0}]
